AMC-1 (GE-1)            
1 24315U 96054A   22204.52027455  .00000061  00000+0  00000+0 0  9994
2 24315   5.7027  72.8678 0002949  42.1057 242.6360  1.00271881 32038
AMC-3 (GE-3)            
1 24936U 97050A   22204.15125042 -.00000263  00000+0  00000+0 0  9995
2 24936   4.6306  79.1783 0002749  48.9207 155.2027  1.00272058 38145
ASTRA 1G                
1 25071U 97076A   22204.24117243  .00000110  00000+0  00000+0 0  9998
2 25071   6.3244  68.0369 0002927  57.0212 282.0836  1.00272015 90214
ASTRA 2A                
1 25462U 98050A   22204.23729861  .00000066  00000+0  00000+0 0  9999
2 25462   3.4918  85.2213 0002021  37.1200 321.2357  1.00274468 32049
AMC-4 (GE-4)            
1 25954U 99060A   22204.52827060  .00000088  00000+0  00000+0 0  9993
2 25954   1.6083  91.5085 0002903  27.5055 237.4812  1.00271394 29264
NSS-11 (AAP-1)          
1 26554U 00059A   22204.53241155  .00000027  00000+0  00000+0 0  9999
2 26554   0.0437 292.4662 0002723 173.7582 202.6817  1.00271439 27008
AMC-6 (GE-6)            
1 26580U 00067A   22204.35419719  .00000106  00000+0  00000+0 0  9998
2 26580   0.0108 355.6010 0002327 118.1531 175.7970  1.00272771 79634
ASTRA 2D                
1 26638U 00081A   22204.24204444  .00000124  00000+0  00000+0 0  9993
2 26638   7.3657  60.0745 0001829  79.4525 272.2115  1.00272590 38613
AMC-8 (GE-8)            
1 26639U 00081B   22204.51442743  .00000087  00000+0  00000+0 0  9998
2 26639   2.5347  88.2404 0003022  21.0345 242.1334  1.00272456 79043
ASTRA 2C                
1 26853U 01025A   22204.50989756 -.00000261  00000+0  00000+0 0  9999
2 26853   4.6553  78.9796 0002623  52.8671 280.4172  1.00269092 30755
ASTRA 3A                
1 27400U 02015B   22204.50710715 -.00000208  00000+0  00000+0 0  9996
2 27400   7.4681  58.9501 0000930  68.0865 269.9809  1.00272094 74430
NSS-7                   
1 27414U 02019A   22204.37685668 -.00000162  00000+0  00000+0 0  9997
2 27414   5.9804  71.0344 0002284  56.8645 288.8523  1.00271485 74279
NSS-6                   
1 27603U 02057A   22204.55056358  .00000108  00000+0  00000+0 0  9996
2 27603   1.6999  91.2903 0003291  37.6455 200.9810  1.00274197 71754
AMC-11 (GE-11)          
1 28252U 04017A   22204.52827060  .00000071  00000+0  00000+0 0  9997
2 28252   0.0522 288.4374 0002376 198.6433 233.3140  1.00272365 66596
AMC-15                  
1 28446U 04041A   22204.55146132 -.00000086  00000+0  00000+0 0  9993
2 28446   0.0536 289.9379 0002635 173.6560 291.1250  1.00271274 65039
NSS-10 (AMC-12)         
1 28526U 05003A   22204.51669920 -.00000252  00000+0  00000+0 0  9997
2 28526   2.8722  87.0028 0002647  27.1992 335.5684  1.00271666 38879
ASTRA 1KR               
1 29055U 06012A   22203.36507619  .00000121  00000+0  00000+0 0  9998
2 29055   0.0720 268.1109 0003074 262.2120 280.4269  1.00277492 31432
AMC-18                  
1 29644U 06054B   22204.47618715 -.00000214  00000+0  00000+0 0  9995
2 29644   0.0469 283.2770 0002333 201.6290 264.6854  1.00271890 57258
ASTRA 1L                
1 31306U 07016A   22204.31291778  .00000122  00000+0  00000+0 0  9998
2 31306   0.0819 296.6351 0000473 186.3744 309.8589  1.00273940 30733
ASTRA 4A (SIRIUS 4)     
1 32299U 07057A   22204.39563317  .00000034  00000+0  00000+0 0  9996
2 32299   0.0366 298.8641 0002641 185.2140 324.2638  1.00271411 37380
AMC-21                  
1 33275U 08038B   22204.52809740  .00000038  00000+0  00000+0 0  9993
2 33275   0.0559 283.8120 0002920 214.4647 228.1626  1.00274090 51204
ASTRA 1M                
1 33436U 08057A   22204.31291778  .00000121  00000+0  00000+0 0  9999
2 33436   0.0415  97.9837 0005163  35.9329 298.9100  1.00272890 31439
CIEL-2                  
1 33453U 08063A   22204.52309104  .00000060  00000+0  00000+0 0  9993
2 33453   0.0394 240.8250 0002834 240.7855 239.0663  1.00271666 49848
NSS-9                   
1 33749U 09008A   22204.54076041  .00000074  00000+0  00000+0 0  9999
2 33749   0.0123  18.2949 0001909 112.3160 188.3789  1.00274029 49248
SES-7 (PROTOSTAR 2)     
1 34941U 09027A   22204.47414541 -.00000343  00000+0  00000+0 0  9998
2 34941   0.0104  42.7184 0000464 218.8842 318.5147  1.00271115 48336
NSS-12                  
1 36032U 09058A   22204.46391920  .00000073  00000+0  00000+0 0  9998
2 36032   0.0425 286.5257 0002669 200.5104  38.1319  1.00271684 46630
SES-1                   
1 36516U 10016A   22204.55635970 -.00000112  00000+0  00000+0 0  9992
2 36516   0.0550 281.2858 0002327 193.4883 285.7595  1.00271783 44757
ASTRA 3B                
1 36581U 10021A   22204.52899444  .00000139  00000+0  00000+0 0  9993
2 36581   0.0388   0.3926 0003450 132.7284  22.0438  1.00273218 44363
SES-3                   
1 37748U 11035A   22204.55479522 -.00000100  00000+0  00000+0 0  9998
2 37748   0.0157  18.3335 0002756 104.1318 275.5081  1.00271984 40302
ASTRA 1N                
1 37775U 11041A   22204.31291778  .00000121  00000+0  00000+0 0  9996
2 37775   0.0537  46.4158 0004116  38.0175 348.4056  1.00271749 30239
SES-2                   
1 37809U 11049A   22204.47618715 -.00000194  00000+0  00000+0 0  9994
2 37809   0.0520 281.1338 0002656 200.1981 264.2626  1.00273006 39674
QUETZSAT 1              
1 37826U 11054A   22204.50535535 -.00000240  00000+0  00000+0 0  9993
2 37826   0.0297 310.5786 0002866 183.6179 271.9294  1.00271138 39811
SES-4                   
1 38087U 12007A   22204.37642068 -.00000166  00000+0  00000+0 0  9994
2 38087   0.0091  19.2883 0002433 106.1971 289.1051  1.00271659 37946
SES-5                   
1 38652U 12036A   22204.39254019  .00000035  00000+0  00000+0 0  9995
2 38652   0.0609 287.0182 0001803 191.1252 329.2352  1.00270891 30201
ASTRA 2F                
1 38778U 12051A   22204.37896647  .00000151  00000+0  00000+0 0  9997
2 38778   0.0803 246.2621 0002986 297.6096 281.8202  1.00272455 26842
SES-6                   
1 39172U 13026A   22204.51626319 -.00000259  00000+0  00000+0 0  9992
2 39172   0.0116  19.6445 0002009 106.2124 320.7086  1.00270674 33445
O3B FM5                 
1 39188U 13031A   22204.45746989 -.00000025  00000+0  00000+0 0  9995
2 39188   0.0516  24.7100 0002568  98.3190 236.9933  5.00115283165752
O3B FM4                 
1 39189U 13031B   22204.51355603 -.00000025  00000+0  00000+0 0  9992
2 39189   0.0570 355.4788 0002504 126.6136 237.9296  5.00115720165775
O3B FM2                 
1 39190U 13031C   22204.19148979 -.00000025  00000+0  00000+0 0  9994
2 39190   0.0603 351.6329 0001091 116.1800 252.1965  4.99476783165829
O3B PFM                 
1 39191U 13031D   22204.43136443 -.00000025  00000+0  00000+0 0  9995
2 39191   0.0502  14.6640 0002655 106.9450 238.4146  5.00115729165387
ASTRA 2E                
1 39285U 13056A   22204.37896647  .00000152  00000+0  00000+0 0  9998
2 39285   0.0666 333.5127 0002297 147.7856 344.6700  1.00271828 32153
SES-8                   
1 39460U 13071A   22204.47152941 -.00000268  00000+0  00000+0 0  9992
2 39460   0.0598 252.8330 0002543 224.7685  88.3218  1.00272841 30140
ASTRA 5B                
1 39617U 14011B   22204.45886157  .00000156  00000+0  00000+0 0  9997
2 39617   0.0305   4.0159 0003438 124.8241   9.0128  1.00268791 30383
O3B FM3                 
1 40079U 14038A   22204.48610453 -.00000025  00000+0  00000+0 0  9993
2 40079   0.0547   3.0352 0005062 117.2528 239.7597  5.00115403141760
O3B FM7                 
1 40080U 14038B   22204.43217642 -.00000025  00000+0  00000+0 0  9993
2 40080   0.0588   1.3143 0000937 150.5580 208.1304  5.00115481146598
O3B FM6                 
1 40081U 14038C   22202.05986239 -.00000025  00000+0  00000+0 0  9995
2 40081   0.0542   2.3868 0002691 118.1511 239.4857  5.00115461146438
O3B FM8                 
1 40082U 14038D   22204.51250615 -.00000025  00000+0  00000+0 0  9991
2 40082   0.0543 358.6698 0002699 120.7088 240.6460  5.00115674146669
O3B FM10                
1 40348U 14083A   22204.53850518 -.00000025  00000+0  00000+0 0  9996
2 40348   0.0479   9.3365 0002633 112.5705 238.1162  5.00115183138618
O3B FM11                
1 40349U 14083B   22204.35209728 -.00000025  00000+0  00000+0 0  9998
2 40349   0.0521  11.6515 0002195 123.2175 225.1464  5.00115424138623
O3B FM12                
1 40350U 14083C   22204.17940031 -.00000025  00000+0  00000+0 0  9999
2 40350   0.0518  10.6719 0002676 114.6298 234.7209  5.00115277138630
O3B FM9                 
1 40351U 14083D   22204.20635289 -.00000025  00000+0  00000+0 0  9990
2 40351   0.0530  12.5200 0002583 109.8551 237.6474  5.00115600138788
ASTRA 2G                
1 40364U 14089A   22204.37896647  .00000151  00000+0  00000+0 0  9994
2 40364   0.0398 333.3040 0004161 108.6165  23.7794  1.00269335 27688
SES-9                   
1 41380U 16013A   22204.20049282 -.00000344  00000+0  00000+0 0  9994
2 41380   0.0483 272.9636 0001879 195.7535  12.6670  1.00271017 23150
SES-10                  
1 42432U 17017A   22204.29573931 -.00000271  00000+0  00000+0 0  9999
2 42432   0.0121  50.0425 0002753  76.6247 213.8962  1.00272672 19453
SES-15                  
1 42709U 17026A   22204.52792340  .00000062  00000+0  00000+0 0  9996
2 42709   0.0184   3.1122 0000326 143.9812 215.0307  1.00268578 19853
SES-11 (ECHOSTAR 105)   
1 42967U 17063A   22204.55146169 -.00000087  00000+0  00000+0 0  9996
2 42967   0.0199  82.2722 0002360  56.0660 256.4732  1.00271993 17432
SES-14                  
1 43175U 18012B   22204.51486799 -.00000276  00000+0  00000+0 0  9995
2 43175   0.0219 315.6139 0000845 171.5087 311.9315  1.00271938 16762
O3B FM15                
1 43231U 18024A   22204.47220564 -.00000025  00000+0  00000+0 0  9994
2 43231   0.0445   7.9713 0002879 116.6668 235.3867  5.00116035 79747
O3B FM16                
1 43232U 18024B   22204.52558014 -.00000025  00000+0  00000+0 0  9995
2 43232   0.0404   7.3219 0002844 117.7486 234.9538  5.00115931 79665
O3B FM14                
1 43233U 18024C   22204.36526049 -.00000025  00000+0  00000+0 0  9991
2 43233   0.0391   6.0394 0002649 119.5635 234.4194  5.00115308 79661
O3B FM13                
1 43234U 18024D   22200.22168240 -.00000025  00000+0  00000+0 0  9998
2 43234   0.0450  46.1600 0025751  56.6065 257.5179  5.01658775 79581
SES-12                  
1 43488U 18049A   22204.32800344 -.00000268  00000+0  00000+0 0  9998
2 43488   0.0127  45.1094 0000921 203.4933 265.5111  1.00271943 15136
O3B FM20                
1 44112U 19020A   22203.19264575 -.00000025  00000+0  00000+0 0  9998
2 44112   0.0478   8.6976 0002858 122.3532 228.9713  5.00115461 60236
O3B FM19                
1 44113U 19020B   22198.02223948 -.00000025  00000+0  00000+0 0  9993
2 44113   0.0499  34.0008 0002640  92.1302 233.8895  5.00115131 59842
O3B FM17                
1 44114U 19020C   22204.29942039 -.00000025  00000+0  00000+0 0  9990
2 44114   0.0446 344.2466 0002975 141.5275 234.2512  5.00115577 60249
O3B FM18                
1 44115U 19020D   22204.24596123 -.00000025  00000+0  00000+0 0  9995
2 44115   0.0480   9.1400 0002882 112.7538 238.1318  5.00115783 60361
SES-17                  
1 49332U 21095A   22204.15220962 -.00000271  00000+0  00000+0 0  9994
2 49332   0.0173  93.2971 0001305  58.2747 136.9728  1.00271266  3551
SES-22                  
1 52933U 22071A   22202.98930458  .00000114  00000+0  00000+0 0  9992
2 52933   0.0561 264.2187 0000696 309.5923 300.0639  1.00272647   255
